{
    "links": {
        "self": "http://www.neowsapp.com/rest/v1/neo/3775713?api_key=iIulBulltgU6a56xZRHN4H3l9WmuAYTsLGpBGhQ2"
    },
    "id": "3775713",
    "neo_reference_id": "3775713",
    "name": "(2017 ME1)",
    "designation": "2017 ME1",
    "nasa_jpl_url": "http://ssd.jpl.nasa.gov/sbdb.cgi?sstr=3775713",
    "absolute_magnitude_h": 24.5,
    "estimated_diameter": {
        "kilometers": {
            "estimated_diameter_min": 0.0334622374,
            "estimated_diameter_max": 0.0748238376
        },
        "meters": {
            "estimated_diameter_min": 33.4622374455,
            "estimated_diameter_max": 74.8238376074
        },
        "miles": {
            "estimated_diameter_min": 0.0207924639,
            "estimated_diameter_max": 0.0464933628
        },
        "feet": {
            "estimated_diameter_min": 109.7842471007,
            "estimated_diameter_max": 245.4850393757
        }
    },
    "is_potentially_hazardous_asteroid": false,
    "close_approach_data": [
        {
            "close_approach_date": "2014-07-26",
            "close_approach_date_full": "2014-Jul-26 12:59",
            "epoch_date_close_approach": 1406379540000,
            "relative_velocity": {
                "kilometers_per_second": "16.2460203141",
                "kilometers_per_hour": "58485.6731306466",
                "miles_per_hour": "36340.7228405398"
            },
            "miss_distance": {
                "astronomical": "0.3204498094",
                "lunar": "124.6549758566",
                "kilometers": "47938608.928145978",
                "miles": "29787670.3153233764"
            },
            "orbiting_body": "Earth"
        },
        {
            "close_approach_date": "2017-06-14",
            "close_approach_date_full": "2017-Jun-14 19:10",
            "epoch_date_close_approach": 1497467400000,
            "relative_velocity": {
                "kilometers_per_second": "7.0769767048",
                "kilometers_per_hour": "25477.1161372957",
                "miles_per_hour": "15830.4891909769"
            },
            "miss_distance": {
                "astronomical": "0.041494302",
                "lunar": "16.141283478",
                "kilometers": "6207459.19633674",
                "miles": "3857136.286817412"
            },
            "orbiting_body": "Earth"
        },
        {
            "close_approach_date": "2020-04-22",
            "close_approach_date_full": "2020-Apr-22 11:35",
            "epoch_date_close_approach": 1587555300000,
            "relative_velocity": {
                "kilometers_per_second": "15.427651652",
                "kilometers_per_hour": "55539.5459473458",
                "miles_per_hour": "34510.1139804494"
            },
            "miss_distance": {
                "astronomical": "0.3140075497",
                "lunar": "122.1489368333",
                "kilometers": "46974860.599039139",
                "miles": "29188824.8724485582"
            },
            "orbiting_body": "Earth"
        },
        {
            "close_approach_date": "2081-09-22",
            "close_approach_date_full": "2081-Sep-22 19:47",
            "epoch_date_close_approach": 3525796020000,
            "relative_velocity": {
                "kilometers_per_second": "11.6430762135",
                "kilometers_per_hour": "41915.0743687138",
                "miles_per_hour": "26044.3971820488"
            },
            "miss_distance": {
                "astronomical": "0.0874768407",
                "lunar": "34.0284910323",
                "kilometers": "13086349.043049309",
                "miles": "8131480.2336021042"
            },
            "orbiting_body": "Mars"
        }
    ],
    "orbital_data": {
        "orbit_id": "5",
        "orbit_determination_date": "2017-07-05 06:17:50",
        "first_observation_date": "2017-06-21",
        "last_observation_date": "2017-07-04",
        "data_arc_in_days": 13,
        "observations_used": 56,
        "orbit_uncertainty": "7",
        "minimum_orbit_intersection": ".038316",
        "jupiter_tisserand_invariant": "3.622",
        "epoch_osculation": "2459000.5",
        "eccentricity": ".494217374000466",
        "semi_major_axis": "2.052303443856414",
        "inclination": "5.553444494382679",
        "ascending_node_longitude": "101.8876057766723",
        "orbital_period": "1073.892446669982",
        "perihelion_distance": "1.038019425181584",
        "perihelion_argument": "153.8028579217992",
        "aphelion_distance": "3.066587462531244",
        "perihelion_time": "2458986.249410700688",
        "mean_anomaly": "4.777212246589827",
        "mean_motion": ".3352291014955165",
        "equinox": "J2000",
        "orbit_class": {
            "orbit_class_type": "AMO",
            "orbit_class_description": "Near-Earth asteroid orbits similar to that of 1221 Amor",
            "orbit_class_range": "1.017 AU < q (perihelion) < 1.3 AU"
        }
    },
    "is_sentry_object": false
}